{
  "type": "FeatureCollection",
  "features": [
    {
      "type": "Feature",
      "properties": {
        "norad_id": 44231,
        "name": "BEIDOU-2 G8 (C01)",
        "group": "gnss",
        "lat": -1.2754997152296794,
        "lon": -55.18419909519673,
        "alt_km": 35754.634405804274,
        "timestamp": "2025-12-06T05:40:09.484278+00:00",
        "meta_object_name": "BEIDOU-2 G8 (C01)",
        "meta_object_id": "2019-027A",
        "meta_epoch": "2025-12-05T07:32:11.410080",
        "meta_mean_motion": 1.00269636,
        "meta_eccentricity": 0.0008455,
        "meta_inclination": 1.6419,
        "meta_ra_of_asc_node": 74.7087,
        "meta_arg_of_pericenter": 254.7332,
        "meta_mean_anomaly": 2.5419,
        "meta_ephemeris_type": 0,
        "meta_classification_type": "U",
        "meta_norad_cat_id": 44231,
        "meta_element_set_no": 999,
        "meta_rev_at_epoch": 2413,
        "meta_bstar": 0,
        "meta_mean_motion_dot": -2.36e-06,
        "meta_mean_motion_ddot": 0,
        "tle_line1": "1 44231U 19027A   25339.31402095 -.00000236  00000+0  00000+0 0  9999",
        "tle_line2": "2 44231   1.6419  74.7087 0008455 254.7332   2.5419  1.00269636 24132"
      },
      "geometry": {
        "type": "Point",
        "coordinates": [
          -55.18419909519673,
          -1.2754997152296794
        ]
      }
    },
    {
      "type": "Feature",
      "properties": {
        "norad_id": 44299,
        "name": "COSMOS 2534 (758)",
        "group": "gnss",
        "lat": 59.742401093058746,
        "lon": -105.48728035737462,
        "alt_km": 19143.299448254857,
        "timestamp": "2025-12-06T05:40:09.484290+00:00",
        "meta_object_name": "COSMOS 2534 (758)",
        "meta_object_id": "2019-030A",
        "meta_epoch": "2025-12-04T10:51:29.869920",
        "meta_mean_motion": 2.1310196,
        "meta_eccentricity": 0.0009061,
        "meta_inclination": 64.3652,
        "meta_ra_of_asc_node": 199.1723,
        "meta_arg_of_pericenter": 283.5363,
        "meta_mean_anomaly": 221.3863,
        "meta_ephemeris_type": 0,
        "meta_classification_type": "U",
        "meta_norad_cat_id": 44299,
        "meta_element_set_no": 999,
        "meta_rev_at_epoch": 5077,
        "meta_bstar": 0,
        "meta_mean_motion_dot": 9.8e-07,
        "meta_mean_motion_ddot": 0,
        "tle_line1": "1 44299U 19030A   25338.45242905  .00000098  00000+0  00000+0 0  9998",
        "tle_line2": "2 44299  64.3652 199.1723 0009061 283.5363 221.3863  2.13101960 50771"
      },
      "geometry": {
        "type": "Point",
        "coordinates": [
          -105.48728035737462,
          59.742401093058746
        ]
      }
    },
    {
      "type": "Feature",
      "properties": {
        "norad_id": 44337,
        "name": "BEIDOU-3 IGSO-2 (C39)",
        "group": "gnss",
        "lat": 45.93887612804756,
        "lon": -65.44791543716062,
        "alt_km": 35762.24744150334,
        "timestamp": "2025-12-06T05:40:09.484301+00:00",
        "meta_object_name": "BEIDOU-3 IGSO-2 (C39)",
        "meta_object_id": "2019-035A",
        "meta_epoch": "2025-12-01T05:17:49.661952",
        "meta_mean_motion": 1.00274502,
        "meta_eccentricity": 0.00376064,
        "meta_inclination": 55.2223,
        "meta_ra_of_asc_node": 160.6035,
        "meta_arg_of_pericenter": 202.2564,
        "meta_mean_anomaly": 266.4761,
        "meta_ephemeris_type": 0,
        "meta_classification_type": "U",
        "meta_norad_cat_id": 44337,
        "meta_element_set_no": 999,
        "meta_rev_at_epoch": 2368,
        "meta_bstar": 0,
        "meta_mean_motion_dot": -2.5e-07,
        "meta_mean_motion_ddot": 0,
        "tle_line1": "1 44337U 19035A   25335.22071368 -.00000025  00000+0  00000+0 0  9992",
        "tle_line2": "2 44337  55.2223 160.6035 0037606 202.2564 266.4761  1.00274502 23688"
      },
      "geometry": {
        "type": "Point",
        "coordinates": [
          -65.44791543716062,
          45.93887612804756
        ]
      }
    },
    {
      "type": "Feature",
      "properties": {
        "norad_id": 44506,
        "name": "GPS BIII-2  (PRN 18)",
        "group": "gnss",
        "lat": 19.953314898512957,
        "lon": -6.85748088159279,
        "alt_km": 20332.156254539434,
        "timestamp": "2025-12-06T05:40:09.484316+00:00",
        "meta_object_name": "GPS BIII-2  (PRN 18)",
        "meta_object_id": "2019-056A",
        "meta_epoch": "2025-12-02T10:49:28.764768",
        "meta_mean_motion": 2.00565569,
        "meta_eccentricity": 0.00578163,
        "meta_inclination": 55.7251,
        "meta_ra_of_asc_node": 338.9617,
        "meta_arg_of_pericenter": 198.402,
        "meta_mean_anomaly": 332.9603,
        "meta_ephemeris_type": 0,
        "meta_classification_type": "U",
        "meta_norad_cat_id": 44506,
        "meta_element_set_no": 999,
        "meta_rev_at_epoch": 4612,
        "meta_bstar": 0,
        "meta_mean_motion_dot": -6.1e-07,
        "meta_mean_motion_ddot": 0,
        "tle_line1": "1 44506U 19056A   25336.45102737 -.00000061  00000+0  00000+0 0  9994",
        "tle_line2": "2 44506  55.7251 338.9617 0057816 198.4020 332.9603  2.00565569 46121"
      },
      "geometry": {
        "type": "Point",
        "coordinates": [
          -6.85748088159279,
          19.953314898512957
        ]
      }
    },
    {
      "type": "Feature",
      "properties": {
        "norad_id": 44542,
        "name": "BEIDOU-3 M24 (C46)",
        "group": "gnss",
        "lat": -15.821647912641803,
        "lon": 20.96075515253839,
        "alt_km": 21557.12487473333,
        "timestamp": "2025-12-06T05:40:09.484327+00:00",
        "meta_object_name": "BEIDOU-3 M24 (C46)",
        "meta_object_id": "2019-061A",
        "meta_epoch": "2025-12-04T20:45:16.055424",
        "meta_mean_motion": 1.86229249,
        "meta_eccentricity": 0.00095755,
        "meta_inclination": 54.4001,
        "meta_ra_of_asc_node": 189.282,
        "meta_arg_of_pericenter": 24.0464,
        "meta_mean_anomaly": 336.0883,
        "meta_ephemeris_type": 0,
        "meta_classification_type": "U",
        "meta_norad_cat_id": 44542,
        "meta_element_set_no": 999,
        "meta_rev_at_epoch": 4217,
        "meta_bstar": 0,
        "meta_mean_motion_dot": 9.8e-07,
        "meta_mean_motion_ddot": 0,
        "tle_line1": "1 44542U 19061A   25338.86476916  .00000098  00000+0  00000+0 0  9999",
        "tle_line2": "2 44542  54.4001 189.2820 0009575  24.0464 336.0883  1.86229249 42179"
      },
      "geometry": {
        "type": "Point",
        "coordinates": [
          20.96075515253839,
          -15.821647912641803
        ]
      }
    },
    {
      "type": "Feature",
      "properties": {
        "norad_id": 44543,
        "name": "BEIDOU-3 M23 (C45)",
        "group": "gnss",
        "lat": 48.6979070459725,
        "lon": -45.439318934501294,
        "alt_km": 21522.38312805014,
        "timestamp": "2025-12-06T05:40:09.484341+00:00",
        "meta_object_name": "BEIDOU-3 M23 (C45)",
        "meta_object_id": "2019-061B",
        "meta_epoch": "2025-12-04T17:20:06.370944",
        "meta_mean_motion": 1.86227466,
        "meta_eccentricity": 0.0006129,
        "meta_inclination": 54.3989,
        "meta_ra_of_asc_node": 189.2553,
        "meta_arg_of_pericenter": 23.0087,
        "meta_mean_anomaly": 154.4182,
        "meta_ephemeris_type": 0,
        "meta_classification_type": "U",
        "meta_norad_cat_id": 44543,
        "meta_element_set_no": 999,
        "meta_rev_at_epoch": 4217,
        "meta_bstar": 0,
        "meta_mean_motion_dot": 1e-06,
        "meta_mean_motion_ddot": 0,
        "tle_line1": "1 44543U 19061B   25338.72229596  .00000100  00000+0  00000+0 0  9999",
        "tle_line2": "2 44543  54.3989 189.2553 0006129  23.0087 154.4182  1.86227466 42172"
      },
      "geometry": {
        "type": "Point",
        "coordinates": [
          -45.439318934501294,
          48.6979070459725
        ]
      }
    },
    {
      "type": "Feature",
      "properties": {
        "norad_id": 44624,
        "name": "EUTELSAT 5 WEST B (EGNOS/PRN 121)",
        "group": "gnss",
        "lat": -0.005356804624534737,
        "lon": 155.26767179437363,
        "alt_km": 35789.039637531365,
        "timestamp": "2025-12-06T05:40:09.484355+00:00",
        "meta_object_name": "EUTELSAT 5 WEST B (EGNOS/PRN 121)",
        "meta_object_id": "2019-067A",
        "meta_epoch": "2025-12-05T03:24:03.004416",
        "meta_mean_motion": 1.00270143,
        "meta_eccentricity": 0.00035898,
        "meta_inclination": 0.0687,
        "meta_ra_of_asc_node": 331.84,
        "meta_arg_of_pericenter": 282.9691,
        "meta_mean_anomaly": 225.4129,
        "meta_ephemeris_type": 0,
        "meta_classification_type": "U",
        "meta_norad_cat_id": 44624,
        "meta_element_set_no": 999,
        "meta_rev_at_epoch": 2249,
        "meta_bstar": 0,
        "meta_mean_motion_dot": -3e-07,
        "meta_mean_motion_ddot": 0,
        "tle_line1": "1 44624U 19067A   25339.14170144 -.00000030  00000+0  00000+0 0  9999",
        "tle_line2": "2 44624   0.0687 331.8400 0003589 282.9691 225.4129  1.00270143 22494"
      },
      "geometry": {
        "type": "Point",
        "coordinates": [
          155.26767179437363,
          -0.005356804624534737
        ]
      }
    }
  ]
}